$$SOE
2461295.500000000, A.D. 2026-Sep-12 00:00:00.0000, -7.795007564547318E+07, -4.189923540278448E+08, -9.896602271254301E+06,
2461302.500000000, A.D. 2026-Sep-19 00:00:00.0000, -6.727413166309692E+07, -4.199469731952583E+08, -1.031161105929157E+07,
2461309.500000000, A.D. 2026-Sep-26 00:00:00.0000, -5.655576570867702E+07, -4.206368563822144E+08, -1.072011821934417E+07,
2461316.500000000, A.D. 2026-Oct-03 00:00:00.0000, -4.580151689692921E+07, -4.210599393572369E+08, -1.112182455194244E+07,
2461323.500000000, A.D. 2026-Oct-10 00:00:00.0000, -3.501802882157750E+07, -4.212143126210120E+08, -1.151643178375331E+07,
2461330.500000000, A.D. 2026-Oct-17 00:00:00.0000, -2.421204664233356E+07, -4.210982266828345E+08, -1.190364283157852E+07,
2461337.500000000, A.D. 2026-Oct-24 00:00:00.0000, -1.339041391451463E+07, -4.207100974433032E+08, -1.228316208406225E+07,
2461344.500000000, A.D. 2026-Oct-31 00:00:00.0000, -2.560069054213476E+06, -4.200485117379997E+08, -1.265469571542358E+07,
2461351.500000000, A.D. 2026-Nov-07 00:00:00.0000, 8.271958907240792E+06, -4.191122329554964E+08, -1.301795205591565E+07,
2461358.500000000, A.D. 2026-Nov-14 00:00:00.0000, 1.909855548667931E+07, -4.179002058285373E+08, -1.337264196445638E+07,
2461365.500000000, A.D. 2026-Nov-21 00:00:00.0000, 2.991252502411640E+07, -4.164115597009614E+08, -1.371847898100480E+07,
2461372.500000000, A.D. 2026-Nov-28 00:00:00.0000, 4.070659307673471E+07, -4.146456132608026E+08, -1.405517941243181E+07,
2461379.500000000, A.D. 2026-Dec-05 00:00:00.0000, 5.147341055703316E+07, -4.126018813785219E+08, -1.438246273698407E+07,
2461386.500000000, A.D. 2026-Dec-12 00:00:00.0000, 6.220555978447802E+07, -4.102800809231706E+08, -1.470005208759740E+07,
2461393.500000000, A.D. 2026-Dec-19 00:00:00.0000, 7.289556056610130E+07, -4.076801355328641E+08, -1.500767463969889E+07,
2461400.500000000, A.D. 2026-Dec-26 00:00:00.0000, 8.353587616518532E+07, -4.048021801890173E+08, -1.530506196060860E+07,
2461407.500000000, A.D. 2027-Jan-02 00:00:00.0000, 9.411891943405099E+07, -4.016465657658714E+08, -1.559195036067054E+07,
2461414.500000000, A.D. 2027-Jan-09 00:00:00.0000, 1.046370592264120E+08, -3.982138635149052E+08, -1.586808125442055E+07,
2461421.500000000, A.D. 2027-Jan-16 00:00:00.0000, 1.150826271216570E+08, -3.945048694540793E+08, -1.613320153357568E+07,
2461428.500000000, A.D. 2027-Jan-23 00:00:00.0000, 1.254479245031012E+08, -3.905206086799431E+08, -1.638706395860860E+07,
2461435.500000000, A.D. 2027-Jan-30 00:00:00.0000, 1.357252301728953E+08, -3.862623396294897E+08, -1.662942758931264E+07,
2461442.500000000, A.D. 2027-Feb-06 00:00:00.0000, 1.459068089214275E+08, -3.817315579316793E+08, -1.686005826473245E+07,
2461449.500000000, A.D. 2027-Feb-13 00:00:00.0000, 1.559849205816702E+08, -3.769299986087847E+08, -1.707872898970473E+07,
2461456.500000000, A.D. 2027-Feb-20 00:00:00.0000, 1.659518271932485E+08, -3.718596373967270E+08, -1.728522007498871E+07,
2461463.500000000, A.D. 2027-Feb-27 00:00:00.0000, 1.757997996601564E+08, -3.665226943744088E+08, -1.747931942084591E+07,
2461470.500000000, A.D. 2027-Mar-06 00:00:00.0000, 1.855211269085703E+08, -3.609216379571906E+08, -1.766082306297357E+07,
2461477.500000000, A.D. 2027-Mar-13 00:00:00.0000, 1.951081259316079E+08, -3.550591871851900E+08, -1.782953566563763E+07,
2461484.500000000, A.D. 2027-Mar-20 00:00:00.0000, 2.045531515764367E+08, -3.489383131217569E+08, -1.798527092562966E+07,
2461491.500000000, A.D. 2027-Mar-27 00:00:00.0000, 2.138486062585021E+08, -3.425622398921642E+08, -1.812785194933896E+07,
2461498.500000000, A.D. 2027-Apr-03 00:00:00.0000, 2.229869497861184E+08, -3.359344453921250E+08, -1.825711162422721E+07,
2461505.500000000, A.D. 2027-Apr-10 00:00:00.0000, 2.319607093338813E+08, -3.290586616252005E+08, -1.837289298706348E+07,
2461512.500000000, A.D. 2027-Apr-17 00:00:00.0000, 2.407624895611368E+08, -3.219388746645195E+08, -1.847504959062594E+07,
2461519.500000000, A.D. 2027-Apr-24 00:00:00.0000, 2.493849829277665E+08, -3.145793242804922E+08, -1.856344587973526E+07,
2461526.500000000, A.D. 2027-May-01 00:00:00.0000, 2.578209804817750E+08, -3.069845031870407E+08, -1.863795760045397E+07,
2461533.500000000, A.D. 2027-May-08 00:00:00.0000, 2.660633834030518E+08, -2.991591551432825E+08, -1.869847220822431E+07,
2461540.500000000, A.D. 2027-May-15 00:00:00.0000, 2.741052137821006E+08, -2.911082709486190E+08, -1.874488905853227E+07,
2461547.500000000, A.D. 2027-May-22 00:00:00.0000, 2.819396230410137E+08, -2.828370849163792E+08, -1.877711944723649E+07,
2461554.500000000, A.D. 2027-May-29 00:00:00.0000, 2.895599013206611E+08, -2.743510732871577E+08, -1.879508692700791E+07,
2461561.500000000, A.D. 2027-Jun-05 00:00:00.0000, 2.969594886867800E+08, -2.656559514446935E+08, -1.879872772364315E+07,
2461568.500000000, A.D. 2027-Jun-12 00:00:00.0000, 3.041319861145032E+08, -2.567576694996406E+08, -1.878799103134422E+07,
2461575.500000000, A.D. 2027-Jun-19 00:00:00.0000, 3.110711658862120E+08, -2.476624071748355E+08, -1.876283923153615E+07,
2461582.500000000, A.D. 2027-Jun-26 00:00:00.0000, 3.177709816476944E+08, -2.383765682537177E+08, -1.872324808077650E+07,
2461589.500000000, A.D. 2027-Jul-03 00:00:00.0000, 3.242255782203835E+08, -2.289067745864291E+08, -1.866920687782362E+07,
2461596.500000000, A.D. 2027-Jul-10 00:00:00.0000, 3.304293011721987E+08, -2.192598596505910E+08, -1.860071861123495E+07,
2461603.500000000, A.D. 2027-Jul-17 00:00:00.0000, 3.363767061486056E+08, -2.094428617141435E+08, -1.851780009281214E+07,
2461610.500000000, A.D. 2027-Jul-24 00:00:00.0000, 3.420625680849894E+08, -1.994630166734697E+08, -1.842048209531322E+07,
2461617.500000000, A.D. 2027-Jul-31 00:00:00.0000, 3.474818906776368E+08, -1.893277503431173E+08, -1.830880951193392E+07,
2461624.500000000, A.D. 2027-Aug-07 00:00:00.0000, 3.526299158820064E+08, -1.790446690610875E+08, -1.818284142409277E+07,
2461631.500000000, A.D. 2027-Aug-14 00:00:00.0000, 3.575021311076110E+08, -1.686215488845657E+08, -1.804265088644359E+07,
2461638.500000000, A.D. 2027-Aug-21 00:00:00.0000, 3.620942746947867E+08, -1.580663267635876E+08, -1.788832476027461E+07,
2461645.500000000, A.D. 2027-Aug-28 00:00:00.0000, 3.664023430710780E+08, -1.473870925115586E+08, -1.771996381122444E+07,
2461652.500000000, A.D. 2027-Sep-04 00:00:00.0000, 3.704225983766626E+08, -1.365920790944535E+08, -1.753768275814676E+07,
2461659.500000000, A.D. 2027-Sep-11 00:00:00.0000, 3.741515751367871E+08, -1.256896519270482E+08, -1.734161019906227E+07,
2461666.500000000, A.D. 2027-Sep-18 00:00:00.0000, 3.775860860896893E+08, -1.146882978549753E+08, -1.713188847967296E+07,
2461673.500000000, A.D. 2027-Sep-25 00:00:00.0000, 3.807232273770514E+08, -1.035966139302792E+08, -1.690867353218013E+07,
2461680.500000000, A.D. 2027-Oct-02 00:00:00.0000, 3.835603831536006E+08, -9.242329598491482E+07, -1.667213468971638E+07,
2461687.500000000, A.D. 2027-Oct-09 00:00:00.0000, 3.860952296230773E+08, -8.117712704106134E+07, -1.642245447971140E+07,
2461694.500000000, A.D. 2027-Oct-16 00:00:00.0000, 3.883257385508240E+08, -6.986696564995280E+07, -1.615982840750391E+07,
2461701.500000000, A.D. 2027-Oct-23 00:00:00.0000, 3.902501805006541E+08, -5.850173420329884E+07, -1.588446475561879E+07,
2461708.500000000, A.D. 2027-Oct-30 00:00:00.0000, 3.918671281592627E+08, -4.709040664438811E+07, -1.559658438421165E+07,
2461715.500000000, A.D. 2027-Nov-06 00:00:00.0000, 3.931754585791394E+08, -3.564199448703760E+07, -1.529642033458927E+07,
2461722.500000000, A.D. 2027-Nov-13 00:00:00.0000, 3.941743523551077E+08, -2.416553325844666E+07, -1.498421722441570E+07,
2461729.500000000, A.D. 2027-Nov-20 00:00:00.0000, 3.948632926349301E+08, -1.267007159322028E+07, -1.466023088071882E+07,
2461736.500000000, A.D. 2027-Nov-27 00:00:00.0000, 3.952420655803128E+08, -1.164660052064880E+06, -1.432472811799025E+07,
2461743.500000000, A.D. 2027-Dec-04 00:00:00.0000, 3.953107602594392E+08, 1.034166121198802E+07, -1.397798640226567E+07,
2461750.500000000, A.D. 2027-Dec-11 00:00:00.0000, 3.950697674294756E+08, 2.183987493852845E+07, -1.362029343077101E+07,
2461757.500000000, A.D. 2027-Dec-18 00:00:00.0000, 3.945197774955164E+08, 3.332099901943682E+07, -1.325194668146458E+07,
2461764.500000000, A.D. 2027-Dec-25 00:00:00.0000, 3.936617778112715E+08, 4.477609849405770E+07, -1.287325294805376E+07,
2461771.500000000, A.D. 2028-Jan-01 00:00:00.0000, 3.924970493772686E+08, 5.619629725807140E+07, -1.248452786459171E+07,
$$EOE